TEVEL2-1                
1 63217U 25052H   26062.69703151  .00025683  00000+0  88350-3 0  9991
2 63217  97.4010 318.8401 0004432 116.6791 243.4904 15.30046561 53949
TEVEL2-3                
1 63218U 25052J   26062.69474646  .00025663  00000+0  88187-3 0  9992
2 63218  97.4014 318.8487 0004442 118.5086 241.6602 15.30080734 53942
TEVEL2-2                
1 63219U 25052K   26062.69769975  .00025579  00000+0  87990-3 0  9992
2 63219  97.4011 318.8415 0004357 117.5703 242.5981 15.30048117 53940
TEVEL2-9                
1 63237U 25052AD  26062.67942472  .00022183  00000+0  80393-3 0  9993
2 63237  97.4074 318.4032 0007444 141.7645 218.4124 15.28354901 53897
TEVEL2-7                
1 63238U 25052AE  26062.63741027  .00022614  00000+0  82474-3 0  9994
2 63238  97.4078 318.3155 0007576 141.9181 218.2595 15.28142273 53886
TEVEL2-8                
1 63239U 25052AF  26062.64434470  .00022928  00000+0  83670-3 0  9994
2 63239  97.4074 318.3034 0007480 142.3378 217.8387 15.28119678 53883
HADES-ICM               
1 63492U 25052BN  26062.65216698  .00157932  00000+0  23190-2 0  9990
2 63492  97.3970 322.8879 0008396 122.9792 237.2270 15.54914942 54206
INNOSAT 16 (RS92S7)     
1 64878U 25155C   26062.80780611  .00009498  00000+0  39359-3 0  9999
2 64878  97.4453  30.4460 0010239 185.8571 174.2548 15.24066754 64612
GEOSCAN 6 (RS92S6)      
1 64879U 25155D   26062.68981370  .00015797  00000+0  58380-3 0  9995
2 64879  97.4452  31.0782 0007879 173.9244 186.2092 15.27781643 64641
GEOSCAN 1 (RS92S1)      
1 64880U 25155E   26062.79272041  .00018940  00000+0  69038-3 0  9992
2 64880  97.4451  31.2513 0007775 173.8013 186.3324 15.28195834 64667
239ALFEROV (RS61S)      
1 64881U 25155F   26062.82417840  .00023209  00000+0  80798-3 0  9995
2 64881  97.4457  31.5428 0007500 170.5226 189.6157 15.29662298 64684
GEOSCAN 2 (RS92S2)      
1 64890U 25155Q   26062.80623465  .00017863  00000+0  64543-3 0  9994
2 64890  97.4450  31.3729 0007713 159.6146 200.5403 15.28497935 64673
GEOSCAN 5 (RS92S5)      
1 64891U 25155R   26062.83561468  .00023579  00000+0  81261-3 0  9999
2 64891  97.4450  31.6500 0006105 173.4154 186.7168 15.29996810 64693
GEOSCAN 4 (RS92S4)      
1 64892U 25155S   26062.76299377  .00023386  00000+0  80355-3 0  9998
2 64892  97.4453  31.6005 0006091 173.9568 186.1747 15.30095768 64685
GEOSCAN 3 (RS92S3)      
1 64893U 25155T   26062.81130017  .00028471  00000+0  93947-3 0  9991
2 64893  97.4445  31.8288 0005716 173.4659 186.6658 15.31368066 64705
INNOSAT 3 (RS92S0)      
1 64894U 25155U   26062.79780286  .00049629  00000+0  14037-2 0  9998
2 64894  97.4415  32.4228 0005278 162.9548 197.1874 15.36144968 64746
