[{"OBJECT_NAME":"TEVEL2-1","OBJECT_ID":"2025-052H","EPOCH":"2026-03-03T16:43:43.522464","MEAN_MOTION":15.30046561,"ECCENTRICITY":0.0004432,"INCLINATION":97.401,"RA_OF_ASC_NODE":318.8401,"ARG_OF_PERICENTER":116.6791,"MEAN_ANOMALY":243.4904,"EPHEMERIS_TYPE":0,"CLASSIFICATION_TYPE":"U","NORAD_CAT_ID":63217,"ELEMENT_SET_NO":999,"REV_AT_EPOCH":5394,"BSTAR":0.0008835,"MEAN_MOTION_DOT":0.00025683,"MEAN_MOTION_DDOT":0},{"OBJECT_NAME":"TEVEL2-3","OBJECT_ID":"2025-052J","EPOCH":"2026-03-03T16:40:26.094144","MEAN_MOTION":15.30080734,"ECCENTRICITY":0.0004442,"INCLINATION":97.4014,"RA_OF_ASC_NODE":318.8487,"ARG_OF_PERICENTER":118.5086,"MEAN_ANOMALY":241.6602,"EPHEMERIS_TYPE":0,"CLASSIFICATION_TYPE":"U","NORAD_CAT_ID":63218,"ELEMENT_SET_NO":999,"REV_AT_EPOCH":5394,"BSTAR":0.00088187,"MEAN_MOTION_DOT":0.00025663,"MEAN_MOTION_DDOT":0},{"OBJECT_NAME":"TEVEL2-2","OBJECT_ID":"2025-052K","EPOCH":"2026-03-03T16:44:41.258400","MEAN_MOTION":15.30048117,"ECCENTRICITY":0.0004357,"INCLINATION":97.4011,"RA_OF_ASC_NODE":318.8415,"ARG_OF_PERICENTER":117.5703,"MEAN_ANOMALY":242.5981,"EPHEMERIS_TYPE":0,"CLASSIFICATION_TYPE":"U","NORAD_CAT_ID":63219,"ELEMENT_SET_NO":999,"REV_AT_EPOCH":5394,"BSTAR":0.0008799,"MEAN_MOTION_DOT":0.00025579,"MEAN_MOTION_DDOT":0},{"OBJECT_NAME":"TEVEL2-9","OBJECT_ID":"2025-052AD","EPOCH":"2026-03-03T16:18:22.295808","MEAN_MOTION":15.28354901,"ECCENTRICITY":0.0007444,"INCLINATION":97.4074,"RA_OF_ASC_NODE":318.4032,"ARG_OF_PERICENTER":141.7645,"MEAN_ANOMALY":218.4124,"EPHEMERIS_TYPE":0,"CLASSIFICATION_TYPE":"U","NORAD_CAT_ID":63237,"ELEMENT_SET_NO":999,"REV_AT_EPOCH":5389,"BSTAR":0.00080393,"MEAN_MOTION_DOT":0.00022183,"MEAN_MOTION_DDOT":0},{"OBJECT_NAME":"TEVEL2-7","OBJECT_ID":"2025-052AE","EPOCH":"2026-03-03T15:17:52.247328","MEAN_MOTION":15.28142273,"ECCENTRICITY":0.0007576,"INCLINATION":97.4078,"RA_OF_ASC_NODE":318.3155,"ARG_OF_PERICENTER":141.9181,"MEAN_ANOMALY":218.2595,"EPHEMERIS_TYPE":0,"CLASSIFICATION_TYPE":"U","NORAD_CAT_ID":63238,"ELEMENT_SET_NO":999,"REV_AT_EPOCH":5388,"BSTAR":0.00082474,"MEAN_MOTION_DOT":0.00022614,"MEAN_MOTION_DDOT":0},{"OBJECT_NAME":"TEVEL2-8","OBJECT_ID":"2025-052AF","EPOCH":"2026-03-03T15:27:51.382080","MEAN_MOTION":15.28119678,"ECCENTRICITY":0.000748,"INCLINATION":97.4074,"RA_OF_ASC_NODE":318.3034,"ARG_OF_PERICENTER":142.3378,"MEAN_ANOMALY":217.8387,"EPHEMERIS_TYPE":0,"CLASSIFICATION_TYPE":"U","NORAD_CAT_ID":63239,"ELEMENT_SET_NO":999,"REV_AT_EPOCH":5388,"BSTAR":0.0008367,"MEAN_MOTION_DOT":0.00022928,"MEAN_MOTION_DDOT":0},{"OBJECT_NAME":"HADES-ICM","OBJECT_ID":"2025-052BN","EPOCH":"2026-03-03T15:39:07.227072","MEAN_MOTION":15.54914942,"ECCENTRICITY":0.0008396,"INCLINATION":97.397,"RA_OF_ASC_NODE":322.8879,"ARG_OF_PERICENTER":122.9792,"MEAN_ANOMALY":237.227,"EPHEMERIS_TYPE":0,"CLASSIFICATION_TYPE":"U","NORAD_CAT_ID":63492,"ELEMENT_SET_NO":999,"REV_AT_EPOCH":5420,"BSTAR":0.002319,"MEAN_MOTION_DOT":0.00157932,"MEAN_MOTION_DDOT":0},{"OBJECT_NAME":"INNOSAT 16 (RS92S7)","OBJECT_ID":"2025-155C","EPOCH":"2026-03-03T19:23:14.447904","MEAN_MOTION":15.24066754,"ECCENTRICITY":0.0010239,"INCLINATION":97.4453,"RA_OF_ASC_NODE":30.446,"ARG_OF_PERICENTER":185.8571,"MEAN_ANOMALY":174.2548,"EPHEMERIS_TYPE":0,"CLASSIFICATION_TYPE":"U","NORAD_CAT_ID":64878,"ELEMENT_SET_NO":999,"REV_AT_EPOCH":6461,"BSTAR":0.00039359,"MEAN_MOTION_DOT":9.498e-5,"MEAN_MOTION_DDOT":0},{"OBJECT_NAME":"GEOSCAN 6 (RS92S6)","OBJECT_ID":"2025-155D","EPOCH":"2026-03-03T16:33:19.903680","MEAN_MOTION":15.27781643,"ECCENTRICITY":0.0007879,"INCLINATION":97.4452,"RA_OF_ASC_NODE":31.0782,"ARG_OF_PERICENTER":173.9244,"MEAN_ANOMALY":186.2092,"EPHEMERIS_TYPE":0,"CLASSIFICATION_TYPE":"U","NORAD_CAT_ID":64879,"ELEMENT_SET_NO":999,"REV_AT_EPOCH":6464,"BSTAR":0.0005838,"MEAN_MOTION_DOT":0.00015797,"MEAN_MOTION_DDOT":0},{"OBJECT_NAME":"GEOSCAN 1 (RS92S1)","OBJECT_ID":"2025-155E","EPOCH":"2026-03-03T19:01:31.043424","MEAN_MOTION":15.28195834,"ECCENTRICITY":0.0007775,"INCLINATION":97.4451,"RA_OF_ASC_NODE":31.2513,"ARG_OF_PERICENTER":173.8013,"MEAN_ANOMALY":186.3324,"EPHEMERIS_TYPE":0,"CLASSIFICATION_TYPE":"U","NORAD_CAT_ID":64880,"ELEMENT_SET_NO":999,"REV_AT_EPOCH":6466,"BSTAR":0.00069038,"MEAN_MOTION_DOT":0.0001894,"MEAN_MOTION_DDOT":0},{"OBJECT_NAME":"239ALFEROV (RS61S)","OBJECT_ID":"2025-155F","EPOCH":"2026-03-03T19:46:49.013760","MEAN_MOTION":15.29662298,"ECCENTRICITY":0.00075,"INCLINATION":97.4457,"RA_OF_ASC_NODE":31.5428,"ARG_OF_PERICENTER":170.5226,"MEAN_ANOMALY":189.6157,"EPHEMERIS_TYPE":0,"CLASSIFICATION_TYPE":"U","NORAD_CAT_ID":64881,"ELEMENT_SET_NO":999,"REV_AT_EPOCH":6468,"BSTAR":0.00080798,"MEAN_MOTION_DOT":0.00023209,"MEAN_MOTION_DDOT":0},{"OBJECT_NAME":"GEOSCAN 2 (RS92S2)","OBJECT_ID":"2025-155Q","EPOCH":"2026-03-03T19:20:58.673760","MEAN_MOTION":15.28497935,"ECCENTRICITY":0.0007713,"INCLINATION":97.445,"RA_OF_ASC_NODE":31.3729,"ARG_OF_PERICENTER":159.6146,"MEAN_ANOMALY":200.5403,"EPHEMERIS_TYPE":0,"CLASSIFICATION_TYPE":"U","NORAD_CAT_ID":64890,"ELEMENT_SET_NO":999,"REV_AT_EPOCH":6467,"BSTAR":0.00064543,"MEAN_MOTION_DOT":0.00017863,"MEAN_MOTION_DDOT":0},{"OBJECT_NAME":"GEOSCAN 5 (RS92S5)","OBJECT_ID":"2025-155R","EPOCH":"2026-03-03T20:03:17.108352","MEAN_MOTION":15.2999681,"ECCENTRICITY":0.0006105,"INCLINATION":97.445,"RA_OF_ASC_NODE":31.65,"ARG_OF_PERICENTER":173.4154,"MEAN_ANOMALY":186.7168,"EPHEMERIS_TYPE":0,"CLASSIFICATION_TYPE":"U","NORAD_CAT_ID":64891,"ELEMENT_SET_NO":999,"REV_AT_EPOCH":6469,"BSTAR":0.00081261,"MEAN_MOTION_DOT":0.00023579,"MEAN_MOTION_DDOT":0},{"OBJECT_NAME":"GEOSCAN 4 (RS92S4)","OBJECT_ID":"2025-155S","EPOCH":"2026-03-03T18:18:42.661728","MEAN_MOTION":15.30095768,"ECCENTRICITY":0.0006091,"INCLINATION":97.4453,"RA_OF_ASC_NODE":31.6005,"ARG_OF_PERICENTER":173.9568,"MEAN_ANOMALY":186.1747,"EPHEMERIS_TYPE":0,"CLASSIFICATION_TYPE":"U","NORAD_CAT_ID":64892,"ELEMENT_SET_NO":999,"REV_AT_EPOCH":6468,"BSTAR":0.00080355,"MEAN_MOTION_DOT":0.00023386,"MEAN_MOTION_DDOT":0},{"OBJECT_NAME":"GEOSCAN 3 (RS92S3)","OBJECT_ID":"2025-155T","EPOCH":"2026-03-03T19:28:16.334688","MEAN_MOTION":15.31368066,"ECCENTRICITY":0.0005716,"INCLINATION":97.4445,"RA_OF_ASC_NODE":31.8288,"ARG_OF_PERICENTER":173.4659,"MEAN_ANOMALY":186.6658,"EPHEMERIS_TYPE":0,"CLASSIFICATION_TYPE":"U","NORAD_CAT_ID":64893,"ELEMENT_SET_NO":999,"REV_AT_EPOCH":6470,"BSTAR":0.00093947,"MEAN_MOTION_DOT":0.00028471,"MEAN_MOTION_DDOT":0},{"OBJECT_NAME":"INNOSAT 3 (RS92S0)","OBJECT_ID":"2025-155U","EPOCH":"2026-03-03T19:08:50.167104","MEAN_MOTION":15.36144968,"ECCENTRICITY":0.0005278,"INCLINATION":97.4415,"RA_OF_ASC_NODE":32.4228,"ARG_OF_PERICENTER":162.9548,"MEAN_ANOMALY":197.1874,"EPHEMERIS_TYPE":0,"CLASSIFICATION_TYPE":"U","NORAD_CAT_ID":64894,"ELEMENT_SET_NO":999,"REV_AT_EPOCH":6474,"BSTAR":0.0014037,"MEAN_MOTION_DOT":0.00049629,"MEAN_MOTION_DDOT":0}]
